start=new Date('2023-05-12T00:00:00.000Z').valueOf();
sats=[{"TLE_LINE1":"1 49431U 21104Z   23131.43936301  .00002622  00000-0  19076-3 0  9996","ARG_OF_PERICENTER":"106.6467","OBJECT_NAME":"STARLINK-3153","TIME_SYSTEM":"UTC","CENTER_NAME":"EARTH","RA_OF_ASC_NODE":"187.8070","EPHEMERIS_TYPE":"0","SEMIMAJOR_AXIS":"6922.866","OBJECT_TYPE":"PAYLOAD","COUNTRY_CODE":"US","INCLINATION":"53.2147","GP_ID":"231601170","FILE":"3905210","DECAY_DATE":null,"MEAN_ANOMALY":"253.4681","RCS_SIZE":"LARGE","ECCENTRICITY":"0.00014290","OBJECT_ID":"2021-104Z","REV_AT_EPOCH":"8264","BSTAR":"0.00019076000000","MEAN_MOTION_DOT":"0.00002622","EPOCH":"2023-05-11T10:32:40.964064","TLE_LINE2":"2 49431  53.2147 187.8070 0001429 106.6467 253.4681 15.07210354 82649","MEAN_MOTION":"15.07210354","REF_FRAME":"TEME","APOAPSIS":"545.720","PERIOD":"95.541","LAUNCH_DATE":"2021-11-13","MEAN_ELEMENT_THEORY":"SGP4","CLASSIFICATION_TYPE":"U","SITE":"AFETR","PERIAPSIS":"543.742","MEAN_MOTION_DDOT":"0.0000000000000","NORAD_CAT_ID":"49431","ELEMENT_SET_NO":"999"},{"TIME_SYSTEM":"UTC","CENTER_NAME":"EARTH","TLE_LINE1":"1 49432U 21104AA  23131.81764341 -.00000262  00000-0  16376-5 0  9993","OBJECT_NAME":"STARLINK-3158","ARG_OF_PERICENTER":"68.9795","REV_AT_EPOCH":"8284","OBJECT_ID":"2021-104AA","ECCENTRICITY":"0.00010030","COUNTRY_CODE":"US","INCLINATION":"53.2145","SEMIMAJOR_AXIS":"6917.880","EPHEMERIS_TYPE":"0","RA_OF_ASC_NODE":"175.8637","OBJECT_TYPE":"PAYLOAD","MEAN_ANOMALY":"291.1304","DECAY_DATE":null,"RCS_SIZE":"LARGE","GP_ID":"231636730","FILE":"3905576","MEAN_MOTION":"15.08839987","TLE_LINE2":"2 49432  53.2145 175.8637 0001003  68.9795 291.1304 15.08839987 82849","APOAPSIS":"540.439","REF_FRAME":"TEME","BSTAR":"0.00000163760000","MEAN_MOTION_DOT":"-0.00000262","EPOCH":"2023-05-11T19:37:24.390624","NORAD_CAT_ID":"49432","ELEMENT_SET_NO":"999","MEAN_ELEMENT_THEORY":"SGP4","PERIOD":"95.438","LAUNCH_DATE":"2021-11-13","SITE":"AFETR","PERIAPSIS":"539.052","MEAN_MOTION_DDOT":"0.0000000000000","CLASSIFICATION_TYPE":"U"},{"ECCENTRICITY":"0.00011780","OBJECT_ID":"2021-104AB","REV_AT_EPOCH":"8407","GP_ID":"231635478","FILE":"3905576","MEAN_ANOMALY":"271.2834","DECAY_DATE":null,"RCS_SIZE":"LARGE","EPHEMERIS_TYPE":"0","SEMIMAJOR_AXIS":"6917.884","RA_OF_ASC_NODE":"165.8604","OBJECT_TYPE":"PAYLOAD","COUNTRY_CODE":"US","INCLINATION":"53.2155","CENTER_NAME":"EARTH","TIME_SYSTEM":"UTC","ARG_OF_PERICENTER":"88.8294","OBJECT_NAME":"STARLINK-3079","TLE_LINE1":"1 49433U 21104AB  23131.81760887  .00001413  00000-0  10684-3 0  9997","ELEMENT_SET_NO":"999","NORAD_CAT_ID":"49433","CLASSIFICATION_TYPE":"U","PERIAPSIS":"538.934","SITE":"AFETR","MEAN_MOTION_DDOT":"0.0000000000000","LAUNCH_DATE":"2021-11-13","PERIOD":"95.438","MEAN_ELEMENT_THEORY":"SGP4","REF_FRAME":"TEME","APOAPSIS":"540.564","MEAN_MOTION":"15.08838830","TLE_LINE2":"2 49433  53.2155 165.8604 0001178  88.8294 271.2834 15.08838830 84072","EPOCH":"2023-05-11T19:37:21.406368","BSTAR":"0.00010684000000","MEAN_MOTION_DOT":"0.00001413"},{"TLE_LINE1":"1 49434U 21104AC  23131.84984736  .00000741  00000-0  64622-4 0  9997","OBJECT_NAME":"STARLINK-3134","ARG_OF_PERICENTER":"93.8232","TIME_SYSTEM":"UTC","CENTER_NAME":"EARTH","COUNTRY_CODE":"US","INCLINATION":"53.2152","EPHEMERIS_TYPE":"0","RA_OF_ASC_NODE":"185.7289","SEMIMAJOR_AXIS":"6917.882","OBJECT_TYPE":"PAYLOAD","DECAY_DATE":null,"MEAN_ANOMALY":"266.2904","RCS_SIZE":"LARGE","GP_ID":"231635728","FILE":"3905576","REV_AT_EPOCH":"8379","ECCENTRICITY":"0.00012590","OBJECT_ID":"2021-104AC","BSTAR":"0.00006462200000","MEAN_MOTION_DOT":"0.00000741","EPOCH":"2023-05-11T20:23:46.811904","MEAN_MOTION":"15.08839474","TLE_LINE2":"2 49434  53.2152 185.7289 0001259  93.8232 266.2904 15.08839474 83793","APOAPSIS":"540.618","REF_FRAME":"TEME","MEAN_ELEMENT_THEORY":"SGP4","LAUNCH_DATE":"2021-11-13","PERIOD":"95.438","SITE":"AFETR","PERIAPSIS":"538.876","MEAN_MOTION_DDOT":"0.0000000000000","CLASSIFICATION_TYPE":"U","NORAD_CAT_ID":"49434","ELEMENT_SET_NO":"999"},{"ECCENTRICITY":"0.00013310","OBJECT_ID":"2021-104AD","REV_AT_EPOCH":"8298","GP_ID":"231636480","FILE":"3905576","DECAY_DATE":null,"MEAN_ANOMALY":"273.6952","RCS_SIZE":"LARGE","EPHEMERIS_TYPE":"0","RA_OF_ASC_NODE":"165.8429","SEMIMAJOR_AXIS":"6917.883","OBJECT_TYPE":"PAYLOAD","COUNTRY_CODE":"US","INCLINATION":"53.2152","CENTER_NAME":"EARTH","TIME_SYSTEM":"UTC","ARG_OF_PERICENTER":"86.4193","OBJECT_NAME":"STARLINK-3117","TLE_LINE1":"1 49435U 21104AD  23131.82224807  .00000404  00000-0  43476-4 0  9992","ELEMENT_SET_NO":"999","NORAD_CAT_ID":"49435","CLASSIFICATION_TYPE":"U","PERIAPSIS":"538.827","SITE":"AFETR","MEAN_MOTION_DDOT":"0.0000000000000","LAUNCH_DATE":"2021-11-13","PERIOD":"95.438","MEAN_ELEMENT_THEORY":"SGP4","REF_FRAME":"TEME","APOAPSIS":"540.669","MEAN_MOTION":"15.08839220","TLE_LINE2":"2 49435  53.2152 165.8429 0001331  86.4193 273.6952 15.08839220 82988","EPOCH":"2023-05-11T19:44:02.233248","BSTAR":"0.00004347600000","MEAN_MOTION_DOT":"0.00000404"},{"BSTAR":"0.00006344400000","MEAN_MOTION_DOT":"0.00000722","EPOCH":"2023-05-11T19:42:39.271968","MEAN_MOTION":"15.08843451","TLE_LINE2":"2 49436  53.2145 165.8433 0001204  86.0376 274.0754 15.08843451 82980","REF_FRAME":"TEME","APOAPSIS":"540.568","MEAN_ELEMENT_THEORY":"SGP4","PERIOD":"95.437","LAUNCH_DATE":"2021-11-13","SITE":"AFETR","PERIAPSIS":"538.902","MEAN_MOTION_DDOT":"0.0000000000000","CLASSIFICATION_TYPE":"U","NORAD_CAT_ID":"49436","ELEMENT_SET_NO":"999","TLE_LINE1":"1 49436U 21104AE  23131.82128787  .00000722  00000-0  63444-4 0  9993","OBJECT_NAME":"STARLINK-3049","ARG_OF_PERICENTER":"86.0376","TIME_SYSTEM":"UTC","CENTER_NAME":"EARTH","COUNTRY_CODE":"US","INCLINATION":"53.2145","SEMIMAJOR_AXIS":"6917.870","RA_OF_ASC_NODE":"165.8433","EPHEMERIS_TYPE":"0","OBJECT_TYPE":"PAYLOAD","DECAY_DATE":null,"MEAN_ANOMALY":"274.0754","RCS_SIZE":"LARGE","GP_ID":"231636231","FILE":"3905576","REV_AT_EPOCH":"8298","OBJECT_ID":"2021-104AE","ECCENTRICITY":"0.00012040"},{"APOAPSIS":"540.197","REF_FRAME":"TEME","TLE_LINE2":"2 49437  53.2141 165.8766 0000670  67.1824 292.9239 15.08843929 82987","MEAN_MOTION":"15.08843929","EPOCH":"2023-05-11T19:32:03.095808","MEAN_MOTION_DOT":"0.00002961","BSTAR":"0.00020399000000","ELEMENT_SET_NO":"999","NORAD_CAT_ID":"49437","MEAN_MOTION_DDOT":"0.0000000000000","SITE":"AFETR","PERIAPSIS":"539.270","CLASSIFICATION_TYPE":"U","MEAN_ELEMENT_THEORY":"SGP4","PERIOD":"95.437","LAUNCH_DATE":"2021-11-13","CENTER_NAME":"EARTH","TIME_SYSTEM":"UTC","OBJECT_NAME":"STARLINK-3130","ARG_OF_PERICENTER":"67.1824","TLE_LINE1":"1 49437U 21104AF  23131.81392472  .00002961  00000-0  20399-3 0  9995","REV_AT_EPOCH":"8298","ECCENTRICITY":"0.00006700","OBJECT_ID":"2021-104AF","RCS_SIZE":"LARGE","MEAN_ANOMALY":"292.9239","DECAY_DATE":null,"FILE":"3905576","GP_ID":"231634979","INCLINATION":"53.2141","COUNTRY_CODE":"US","OBJECT_TYPE":"PAYLOAD","RA_OF_ASC_NODE":"165.8766","EPHEMERIS_TYPE":"0","SEMIMAJOR_AXIS":"6917.868"},{"NORAD_CAT_ID":"49438","ELEMENT_SET_NO":"999","PERIOD":"95.438","LAUNCH_DATE":"2021-11-13","MEAN_ELEMENT_THEORY":"SGP4","CLASSIFICATION_TYPE":"U","MEAN_MOTION_DDOT":"0.0000000000000","SITE":"AFETR","PERIAPSIS":"538.875","TLE_LINE2":"2 49438  53.2154 165.8567 0001269 101.2570 258.8565 15.08837623 82981","MEAN_MOTION":"15.08837623","APOAPSIS":"540.631","REF_FRAME":"TEME","MEAN_MOTION_DOT":"0.00001033","BSTAR":"0.00008298500000","EPOCH":"2023-05-11T19:17:31.731936","OBJECT_ID":"2021-104AG","ECCENTRICITY":"0.00012690","REV_AT_EPOCH":"8298","OBJECT_TYPE":"PAYLOAD","SEMIMAJOR_AXIS":"6917.888","EPHEMERIS_TYPE":"0","RA_OF_ASC_NODE":"165.8567","INCLINATION":"53.2154","COUNTRY_CODE":"US","FILE":"3905576","GP_ID":"231635229","RCS_SIZE":"LARGE","DECAY_DATE":null,"MEAN_ANOMALY":"258.8565","TIME_SYSTEM":"UTC","CENTER_NAME":"EARTH","TLE_LINE1":"1 49438U 21104AG  23131.80383949  .00001033  00000-0  82985-4 0  9993","ARG_OF_PERICENTER":"101.2570","OBJECT_NAME":"STARLINK-3044"},{"RA_OF_ASC_NODE":"165.9835","EPHEMERIS_TYPE":"0","SEMIMAJOR_AXIS":"6917.876","OBJECT_TYPE":"PAYLOAD","COUNTRY_CODE":"US","INCLINATION":"53.2147","GP_ID":"231635981","FILE":"3905576","DECAY_DATE":null,"MEAN_ANOMALY":"266.6241","RCS_SIZE":"LARGE","ECCENTRICITY":"0.00012440","OBJECT_ID":"2021-104AH","REV_AT_EPOCH":"8298","TLE_LINE1":"1 49439U 21104AH  23131.79280607  .00001651  00000-0  12177-3 0  9990","ARG_OF_PERICENTER":"93.4893","OBJECT_NAME":"STARLINK-3108","TIME_SYSTEM":"UTC","CENTER_NAME":"EARTH","PERIOD":"95.437","LAUNCH_DATE":"2021-11-13","MEAN_ELEMENT_THEORY":"SGP4","CLASSIFICATION_TYPE":"U","PERIAPSIS":"538.881","SITE":"AFETR","MEAN_MOTION_DDOT":"0.0000000000000","NORAD_CAT_ID":"49439","ELEMENT_SET_NO":"999","BSTAR":"0.00012177000000","MEAN_MOTION_DOT":"0.00001651","EPOCH":"2023-05-11T19:01:38.444448","MEAN_MOTION":"15.08841380","TLE_LINE2":"2 49439  53.2147 165.9835 0001244  93.4893 266.6241 15.08841380 82989","REF_FRAME":"TEME","APOAPSIS":"540.602"},{"ECCENTRICITY":"0.00008590","OBJECT_ID":"2021-104AJ","REV_AT_EPOCH":"8298","GP_ID":"231636731","FILE":"3905576","DECAY_DATE":null,"MEAN_ANOMALY":"251.4393","RCS_SIZE":"LARGE","EPHEMERIS_TYPE":"0","SEMIMAJOR_AXIS":"6917.861","RA_OF_ASC_NODE":"165.9098","OBJECT_TYPE":"PAYLOAD","COUNTRY_CODE":"US","INCLINATION":"53.2135","CENTER_NAME":"EARTH","TIME_SYSTEM":"UTC","ARG_OF_PERICENTER":"108.6692","OBJECT_NAME":"STARLINK-3105","TLE_LINE1":"1 49440U 21104AJ  23131.80658194  .00008947  00000-0  57939-3 0  9994","ELEMENT_SET_NO":"999","NORAD_CAT_ID":"49440","CLASSIFICATION_TYPE":"U","PERIAPSIS":"539.131","SITE":"AFETR","MEAN_MOTION_DDOT":"0.0000000000000","PERIOD":"95.437","LAUNCH_DATE":"2021-11-13","MEAN_ELEMENT_THEORY":"SGP4","APOAPSIS":"540.320","REF_FRAME":"TEME","MEAN_MOTION":"15.08846451","TLE_LINE2":"2 49440  53.2135 165.9098 0000859 108.6692 251.4393 15.08846451 82980","EPOCH":"2023-05-11T19:21:28.679616","BSTAR":"0.00057939000000","MEAN_MOTION_DOT":"0.00008947"}];
